*******************************************************************************
Ephemeris / WWW_USER Mon Mar 24 09:27:59 2025 Pasadena, USA      / Horizons    
*******************************************************************************
Target body name: ASASSN (C/2017 O1)              {source: JPL#21}
Center body name: Earth (399)                     {source: DE441}
Center-site name: Mauna Kea
*******************************************************************************
Start time      : A.D. 2018-Oct-10 04:12:00.0000 UT      
Stop  time      : A.D. 2018-Oct-10 16:05:00.0000 UT      
Step-size       : 1 minutes
*******************************************************************************
Target pole/equ : undefined
Target radii    : undefined                                                    
Center geodetic : 204.5278, 19.8260847, 4.21024   {E-lon(deg),Lat(deg),Alt(km)}
Center cylindric: 204.5278, 6006.35451, 2151.0229 {E-lon(deg),Dxy(km),Dz(km)}
Center pole/equ : ITRF93                          {East-longitude positive}
Center radii    : 6378.137, 6378.137, 6356.752 km {Equator_a, b, pole_c}       
Target primary  : Sun
Vis. interferer : MOON (R_eq= 1737.400) km        {source: DE441}
Rel. light bend : Sun                             {source: DE441}
Rel. lght bnd GM: 1.3271E+11 km^3/s^2                                          
Small-body perts: Yes                             {source: SB441-N16}
Atmos refraction: NO (AIRLESS)
RA format       : HMS
Time format     : CAL 
Calendar mode   : Mixed Julian/Gregorian
RTS-only print  : NO       
EOP file        : eop.250321.p250617                                           
EOP coverage    : DATA-BASED 1962-JAN-20 TO 2025-MAR-21. PREDICTS-> 2025-JUN-16
Units conversion: 1 au= 149597870.700 km, c= 299792.458 km/s, 1 day= 86400.0 s 
Table cut-offs 1: Elevation (-90.0deg=NO ),Airmass (>38.000=NO), Daylight (YES)
Table cut-offs 2: Solar elongation (  0.0,180.0=NO ),Local Hour Angle( 0.0=NO )
Table cut-offs 3: RA/DEC angular rate (     0.0=NO )                           
*******************************************************************************
Initial IAU76/J2000 heliocentric ecliptic osculating elements (au, days, deg.):
  EPOCH=  2458039.5 ! 2017-Oct-13.0000000 (TDB)    RMSW= n.a.                  
   EC= .9964254882304144   QR= 1.498687032290766   TP= 2458041.2851755521      
   OM= 25.80948799039273   W= 20.90785287564418    IN= 39.84841297991522       
  Equivalent ICRF heliocentric cartesian coordinates (au, au/d):
   X= 1.103880574170232E+00  Y= 7.544591652134763E-01  Z= 6.774428678789283E-01
  VX=-1.240653547490291E-02 VY= 4.322571932715848E-03 VZ= 1.488380440184248E-02
Comet physical (GM= km^3/s^2; RAD= km):                                        
   GM= n.a.                RAD= n.a.                                           
   M1=  12.4     M2=  n.a.     k1=  8.75   k2= n.a.     PHCOF= n.a.            
*******************************************************************************
 Date__(UT)__HR:MN     R.A._________(ICRF)_________DEC
******************************************************
$$SOE
 2018-Oct-10 12:32     12 07 16.499089 +25 59 42.92843
 2018-Oct-10 12:33     12 07 16.535875 +25 59 42.71083
 2018-Oct-10 12:34     12 07 16.572660 +25 59 42.49324
 2018-Oct-10 12:35     12 07 16.609442 +25 59 42.27567
 2018-Oct-10 12:36     12 07 16.646223 +25 59 42.05810
 2018-Oct-10 12:37     12 07 16.683002 +25 59 41.84055
 2018-Oct-10 12:38     12 07 16.719779 +25 59 41.62300
 2018-Oct-10 12:39     12 07 16.756554 +25 59 41.40547
 2018-Oct-10 12:40     12 07 16.793328 +25 59 41.18794
 2018-Oct-10 12:41     12 07 16.830099 +25 59 40.97043
 2018-Oct-10 12:42     12 07 16.866869 +25 59 40.75293
 2018-Oct-10 12:43     12 07 16.903636 +25 59 40.53544
 2018-Oct-10 12:44     12 07 16.940402 +25 59 40.31795
 2018-Oct-10 12:45     12 07 16.977166 +25 59 40.10048
 2018-Oct-10 12:46     12 07 17.013928 +25 59 39.88302
 2018-Oct-10 12:47     12 07 17.050688 +25 59 39.66557
 2018-Oct-10 12:48     12 07 17.087446 +25 59 39.44813
 2018-Oct-10 12:49     12 07 17.124202 +25 59 39.23070
 2018-Oct-10 12:50     12 07 17.160956 +25 59 39.01328
 2018-Oct-10 12:51     12 07 17.197708 +25 59 38.79587
 2018-Oct-10 12:52     12 07 17.234459 +25 59 38.57847
 2018-Oct-10 12:53     12 07 17.271207 +25 59 38.36108
 2018-Oct-10 12:54     12 07 17.307953 +25 59 38.14371
 2018-Oct-10 12:55     12 07 17.344697 +25 59 37.92634
 2018-Oct-10 12:56     12 07 17.381440 +25 59 37.70898
 2018-Oct-10 12:57     12 07 17.418180 +25 59 37.49163
 2018-Oct-10 12:58     12 07 17.454919 +25 59 37.27429
 2018-Oct-10 12:59     12 07 17.491655 +25 59 37.05696
 2018-Oct-10 13:00     12 07 17.528389 +25 59 36.83964
 2018-Oct-10 13:01     12 07 17.565122 +25 59 36.62233
 2018-Oct-10 13:02     12 07 17.601852 +25 59 36.40502
 2018-Oct-10 13:03     12 07 17.638580 +25 59 36.18773
 2018-Oct-10 13:04     12 07 17.675307 +25 59 35.97045
 2018-Oct-10 13:05     12 07 17.712031 +25 59 35.75318
 2018-Oct-10 13:06     12 07 17.748753 +25 59 35.53591
 2018-Oct-10 13:07     12 07 17.785473 +25 59 35.31866
 2018-Oct-10 13:08     12 07 17.822192 +25 59 35.10142
 2018-Oct-10 13:09     12 07 17.858908 +25 59 34.88418
 2018-Oct-10 13:10     12 07 17.895622 +25 59 34.66696
 2018-Oct-10 13:11     12 07 17.932334 +25 59 34.44974
 2018-Oct-10 13:12     12 07 17.969044 +25 59 34.23253
 2018-Oct-10 13:13     12 07 18.005751 +25 59 34.01533
 2018-Oct-10 13:14     12 07 18.042457 +25 59 33.79814
 2018-Oct-10 13:15     12 07 18.079161 +25 59 33.58096
 2018-Oct-10 13:16     12 07 18.115863 +25 59 33.36379
 2018-Oct-10 13:17     12 07 18.152562 +25 59 33.14663
 2018-Oct-10 13:18     12 07 18.189260 +25 59 32.92947
 2018-Oct-10 13:19     12 07 18.225955 +25 59 32.71233
 2018-Oct-10 13:20     12 07 18.262648 +25 59 32.49519
 2018-Oct-10 13:21     12 07 18.299339 +25 59 32.27807
 2018-Oct-10 13:22     12 07 18.336028 +25 59 32.06095
 2018-Oct-10 13:23     12 07 18.372715 +25 59 31.84384
 2018-Oct-10 13:24     12 07 18.409400 +25 59 31.62673
 2018-Oct-10 13:25     12 07 18.446083 +25 59 31.40964
 2018-Oct-10 13:26     12 07 18.482763 +25 59 31.19256
 2018-Oct-10 13:27     12 07 18.519442 +25 59 30.97548
 2018-Oct-10 13:28     12 07 18.556118 +25 59 30.75841
 2018-Oct-10 13:29     12 07 18.592792 +25 59 30.54135
 2018-Oct-10 13:30     12 07 18.629464 +25 59 30.32430
 2018-Oct-10 13:31     12 07 18.666134 +25 59 30.10726
 2018-Oct-10 13:32     12 07 18.702802 +25 59 29.89022
 2018-Oct-10 13:33     12 07 18.739467 +25 59 29.67319
 2018-Oct-10 13:34     12 07 18.776131 +25 59 29.45617
 2018-Oct-10 13:35     12 07 18.812792 +25 59 29.23916
 2018-Oct-10 13:36     12 07 18.849451 +25 59 29.02216
 2018-Oct-10 13:37     12 07 18.886108 +25 59 28.80516
 2018-Oct-10 13:38     12 07 18.922762 +25 59 28.58818
 2018-Oct-10 13:39     12 07 18.959415 +25 59 28.37120
 2018-Oct-10 13:40     12 07 18.996065 +25 59 28.15422
 2018-Oct-10 13:41     12 07 19.032713 +25 59 27.93726
 2018-Oct-10 13:42     12 07 19.069359 +25 59 27.72030
 2018-Oct-10 13:43     12 07 19.106003 +25 59 27.50335
 2018-Oct-10 13:44     12 07 19.142644 +25 59 27.28641
 2018-Oct-10 13:45     12 07 19.179284 +25 59 27.06948
 2018-Oct-10 13:46     12 07 19.215921 +25 59 26.85255
 2018-Oct-10 13:47     12 07 19.252556 +25 59 26.63563
 2018-Oct-10 13:48     12 07 19.289188 +25 59 26.41872
 2018-Oct-10 13:49     12 07 19.325819 +25 59 26.20181
 2018-Oct-10 13:50     12 07 19.362447 +25 59 25.98492
 2018-Oct-10 13:51     12 07 19.399073 +25 59 25.76802
 2018-Oct-10 13:52     12 07 19.435697 +25 59 25.55114
 2018-Oct-10 13:53     12 07 19.472318 +25 59 25.33426
 2018-Oct-10 13:54     12 07 19.508937 +25 59 25.11739
 2018-Oct-10 13:55     12 07 19.545555 +25 59 24.90053
 2018-Oct-10 13:56     12 07 19.582169 +25 59 24.68368
 2018-Oct-10 13:57     12 07 19.618782 +25 59 24.46683
 2018-Oct-10 13:58     12 07 19.655392 +25 59 24.24998
 2018-Oct-10 13:59     12 07 19.692000 +25 59 24.03315
 2018-Oct-10 14:00     12 07 19.728606 +25 59 23.81632
 2018-Oct-10 14:01     12 07 19.765210 +25 59 23.59950
 2018-Oct-10 14:02     12 07 19.801811 +25 59 23.38268
 2018-Oct-10 14:03     12 07 19.838410 +25 59 23.16587
 2018-Oct-10 14:04     12 07 19.875007 +25 59 22.94907
 2018-Oct-10 14:05     12 07 19.911601 +25 59 22.73227
 2018-Oct-10 14:06     12 07 19.948193 +25 59 22.51548
 2018-Oct-10 14:07     12 07 19.984783 +25 59 22.29870
 2018-Oct-10 14:08     12 07 20.021371 +25 59 22.08192
 2018-Oct-10 14:09     12 07 20.057956 +25 59 21.86515
 2018-Oct-10 14:10     12 07 20.094539 +25 59 21.64839
 2018-Oct-10 14:11     12 07 20.131120 +25 59 21.43163
 2018-Oct-10 14:12     12 07 20.167698 +25 59 21.21487
 2018-Oct-10 14:13     12 07 20.204275 +25 59 20.99813
 2018-Oct-10 14:14     12 07 20.240849 +25 59 20.78138
 2018-Oct-10 14:15     12 07 20.277420 +25 59 20.56465
 2018-Oct-10 14:16     12 07 20.313989 +25 59 20.34792
 2018-Oct-10 14:17     12 07 20.350556 +25 59 20.13120
 2018-Oct-10 14:18     12 07 20.387121 +25 59 19.91448
 2018-Oct-10 14:19     12 07 20.423683 +25 59 19.69776
 2018-Oct-10 14:20     12 07 20.460244 +25 59 19.48106
 2018-Oct-10 14:21  r  12 07 20.496801 +25 59 19.26436
 2018-Oct-10 14:22     12 07 20.533357 +25 59 19.04766
 2018-Oct-10 14:23     12 07 20.569910 +25 59 18.83097
 2018-Oct-10 14:24     12 07 20.606461 +25 59 18.61428
 2018-Oct-10 14:25     12 07 20.643009 +25 59 18.39760
 2018-Oct-10 14:26     12 07 20.679555 +25 59 18.18093
 2018-Oct-10 14:27     12 07 20.716099 +25 59 17.96426
 2018-Oct-10 14:28     12 07 20.752641 +25 59 17.74759
 2018-Oct-10 14:29     12 07 20.789180 +25 59 17.53093
 2018-Oct-10 14:30     12 07 20.825717 +25 59 17.31428
 2018-Oct-10 14:31     12 07 20.862251 +25 59 17.09763
 2018-Oct-10 14:32     12 07 20.898783 +25 59 16.88099
 2018-Oct-10 14:33     12 07 20.935313 +25 59 16.66435
 2018-Oct-10 14:34     12 07 20.971841 +25 59 16.44771
 2018-Oct-10 14:35     12 07 21.008366 +25 59 16.23108
 2018-Oct-10 14:36     12 07 21.044889 +25 59 16.01445
